{"type": "FeatureCollection", "features": [ {"type": "Feature", "properties": {"norad_id": 31768, "name": "FENGYUN 1C DEB", "group": "fengyun-1c-debris", "lat": -80.92460100292286, "lon": 149.5509332661893, "alt_km": 638.5160523044733, "timestamp": "2025-12-16T15:45:51.330342+00:00", "meta": {"OBJECT_NAME": "FENGYUN 1C DEB", "OBJECT_ID": "1999-025CFT", "EPOCH": "2025-12-15T16:27:14.929344", "MEAN_MOTION": 14.76256327, "ECCENTRICITY": 0.0026449, "INCLINATION": 99.0426, "RA_OF_ASC_NODE": 62.9088, "ARG_OF_PERICENTER": 331.6221, "MEAN_ANOMALY": 180.5798, "EPHEMERIS_TYPE": 0, "CLASSIFICATION_TYPE": "U", "NORAD_CAT_ID": 31768, "ELEMENT_SET_NO": 999, "REV_AT_EPOCH": 96916, "BSTAR": 0.0014428572, "MEAN_MOTION_DOT": 0.0001, "MEAN_MOTION_DDOT": 0}, "tle": {"line1": "1 31768U 99025CFT 25349.68558946  .00010000  00000+0  14429-2 0  9996", "line2": "2 31768  99.0426  62.9088 0026449 331.6221 180.5798 14.76256327969165"}}, "geometry": {"type": "Point", "coordinates": [149.5509332661893, -80.92460100292286]}}, {"type": "Feature", "properties": {"norad_id": 31772, "name": "FENGYUN 1C DEB", "group": "fengyun-1c-debris", "lat": -11.238925234228352, "lon": 86.19533794755982, "alt_km": 854.2939041913623, "timestamp": "2025-12-16T15:45:51.330352+00:00", "meta": {"OBJECT_NAME": "FENGYUN 1C DEB", "OBJECT_ID": "1999-025CFX", "EPOCH": "2025-12-11T05:35:48.586272", "MEAN_MOTION": 14.11688843, "ECCENTRICITY": 0.01364755, "INCLINATION": 98.4728, "RA_OF_ASC_NODE": 262.7683, "ARG_OF_PERICENTER": 117.9811, "MEAN_ANOMALY": 243.525, "EPHEMERIS_TYPE": 0, "CLASSIFICATION_TYPE": "U", "NORAD_CAT_ID": 31772, "ELEMENT_SET_NO": 999, "REV_AT_EPOCH": 70862, "BSTAR": 0.0014944149, "MEAN_MOTION_DOT": 2.93e-05, "MEAN_MOTION_DDOT": 0}, "tle": {"line1": "1 31772U 99025CFX 25345.23320123  .00002930  00000+0  14944-2 0  9997", "line2": "2 31772  98.4728 262.7683 0136475 117.9811 243.5250 14.11688843708626"}}, "geometry": {"type": "Point", "coordinates": [86.19533794755982, -11.238925234228352]}}, {"type": "Feature", "properties": {"norad_id": 31773, "name": "FENGYUN 1C DEB", "group": "fengyun-1c-debris", "lat": 45.713562525262155, "lon": -27.324462555273207, "alt_km": 661.1562442374661, "timestamp": "2025-12-16T15:45:51.330362+00:00", "meta": {"OBJECT_NAME": "FENGYUN 1C DEB", "OBJECT_ID": "1999-025CFY", "EPOCH": "2025-12-13T17:26:47.796576", "MEAN_MOTION": 14.72880155, "ECCENTRICITY": 0.00392223, "INCLINATION": 98.9496, "RA_OF_ASC_NODE": 338.7474, "ARG_OF_PERICENTER": 175.2061, "MEAN_ANOMALY": 184.9527, "EPHEMERIS_TYPE": 0, "CLASSIFICATION_TYPE": "U", "NORAD_CAT_ID": 31773, "ELEMENT_SET_NO": 999, "REV_AT_EPOCH": 65189, "BSTAR": 0.0022829423, "MEAN_MOTION_DOT": 0.00014769, "MEAN_MOTION_DDOT": 0}, "tle": {"line1": "1 31773U 99025CFY 25347.72694209  .00014769  00000+0  22829-2 0  9997", "line2": "2 31773  98.9496 338.7474 0039222 175.2061 184.9527 14.72880155651890"}}, "geometry": {"type": "Point", "coordinates": [-27.324462555273207, 45.713562525262155]}}, {"type": "Feature", "properties": {"norad_id": 31776, "name": "FENGYUN 1C DEB", "group": "fengyun-1c-debris", "lat": 74.27513216559564, "lon": 15.899245766129042, "alt_km": 838.6961988781441, "timestamp": "2025-12-16T15:45:51.330372+00:00", "meta": {"OBJECT_NAME": "FENGYUN 1C DEB", "OBJECT_ID": "1999-025CGB", "EPOCH": "2025-12-10T10:30:15.554592", "MEAN_MOTION": 14.18530208, "ECCENTRICITY": 0.00545226, "INCLINATION": 99.0756, "RA_OF_ASC_NODE": 44.129, "ARG_OF_PERICENTER": 341.0208, "MEAN_ANOMALY": 33.1923, "EPHEMERIS_TYPE": 0, "CLASSIFICATION_TYPE": "U", "NORAD_CAT_ID": 31776, "ELEMENT_SET_NO": 999, "REV_AT_EPOCH": 94848, "BSTAR": 0.0019236943, "MEAN_MOTION_DOT": 3.993e-05, "MEAN_MOTION_DDOT": 0}, "tle": {"line1": "1 31776U 99025CGB 25344.43768003  .00003993  00000+0  19237-2 0  9995", "line2": "2 31776  99.0756  44.1290 0054522 341.0208  33.1923 14.18530208948484"}}, "geometry": {"type": "Point", "coordinates": [15.899245766129042, 74.27513216559564]}}, {"type": "Feature", "properties": {"norad_id": 31779, "name": "FENGYUN 1C DEB", "group": "fengyun-1c-debris", "lat": -16.63435118696124, "lon": -86.2211724565678, "alt_km": 908.5931222925465, "timestamp": "2025-12-16T15:45:51.330382+00:00", "meta": {"OBJECT_NAME": "FENGYUN 1C DEB", "OBJECT_ID": "1999-025CGE", "EPOCH": "2025-12-15T01:31:56.624448", "MEAN_MOTION": 14.41602152, "ECCENTRICITY": 0.02133679, "INCLINATION": 99.2983, "RA_OF_ASC_NODE": 269.2391, "ARG_OF_PERICENTER": 176.0776, "MEAN_ANOMALY": 184.2146, "EPHEMERIS_TYPE": 0, "CLASSIFICATION_TYPE": "U", "NORAD_CAT_ID": 31779, "ELEMENT_SET_NO": 999, "REV_AT_EPOCH": 97043, "BSTAR": 0.00026163889, "MEAN_MOTION_DOT": 1.055e-05, "MEAN_MOTION_DDOT": 0}, "tle": {"line1": "1 31779U 99025CGE 25349.06384982  .00001055  00000+0  26164-3 0  9997", "line2": "2 31779  99.2983 269.2391 0213367 176.0776 184.2146 14.41602152970432"}}, "geometry": {"type": "Point", "coordinates": [-86.2211724565678, -16.63435118696124]}}, {"type": "Feature", "properties": {"norad_id": 31780, "name": "FENGYUN 1C DEB", "group": "fengyun-1c-debris", "lat": -24.07544898015786, "lon": 148.01525804157583, "alt_km": 622.7345005575771, "timestamp": "2025-12-16T15:45:51.330392+00:00", "meta": {"OBJECT_NAME": "FENGYUN 1C DEB", "OBJECT_ID": "1999-025CGF", "EPOCH": "2025-12-15T08:49:32.453472", "MEAN_MOTION": 14.69551283, "ECCENTRICITY": 0.01506998, "INCLINATION": 99.2855, "RA_OF_ASC_NODE": 142.3583, "ARG_OF_PERICENTER": 45.1941, "MEAN_ANOMALY": 316.1398, "EPHEMERIS_TYPE": 0, "CLASSIFICATION_TYPE": "U", "NORAD_CAT_ID": 31780, "ELEMENT_SET_NO": 999, "REV_AT_EPOCH": 98536, "BSTAR": 0.00021862334, "MEAN_MOTION_DOT": 1.472e-05, "MEAN_MOTION_DDOT": 0}, "tle": {"line1": "1 31780U 99025CGF 25349.36773673  .00001472  00000+0  21862-3 0  9994", "line2": "2 31780  99.2855 142.3583 0150699  45.1941 316.1398 14.69551283985365"}}, "geometry": {"type": "Point", "coordinates": [148.01525804157583, -24.07544898015786]}}, {"type": "Feature", "properties": {"norad_id": 31781, "name": "FENGYUN 1C DEB", "group": "fengyun-1c-debris", "lat": 30.88280903415491, "lon": 156.0496925243203, "alt_km": 936.8872036973007, "timestamp": "2025-12-16T15:45:51.330402+00:00", "meta": {"OBJECT_NAME": "FENGYUN 1C DEB", "OBJECT_ID": "1999-025CGG", "EPOCH": "2025-12-14T17:43:46.950240", "MEAN_MOTION": 14.13007035, "ECCENTRICITY": 0.02034071, "INCLINATION": 99.4963, "RA_OF_ASC_NODE": 159.7604, "ARG_OF_PERICENTER": 268.2945, "MEAN_ANOMALY": 89.4919, "EPHEMERIS_TYPE": 0, "CLASSIFICATION_TYPE": "U", "NORAD_CAT_ID": 31781, "ELEMENT_SET_NO": 999, "REV_AT_EPOCH": 68376, "BSTAR": 0.0029865129, "MEAN_MOTION_DOT": 6.735e-05, "MEAN_MOTION_DDOT": 0}, "tle": {"line1": "1 31781U 99025CGG 25348.73873785  .00006735  00000+0  29865-2 0  9997", "line2": "2 31781  99.4963 159.7604 0203407 268.2945  89.4919 14.13007035683760"}}, "geometry": {"type": "Point", "coordinates": [156.0496925243203, 30.88280903415491]}}, {"type": "Feature", "properties": {"norad_id": 31782, "name": "FENGYUN 1C DEB", "group": "fengyun-1c-debris", "lat": 77.70537089145976, "lon": 17.973487204942007, "alt_km": 785.4207542693348, "timestamp": "2025-12-16T15:45:51.330413+00:00", "meta": {"OBJECT_NAME": "FENGYUN 1C DEB", "OBJECT_ID": "1999-025CGH", "EPOCH": "2025-12-12T05:08:34.345824", "MEAN_MOTION": 14.36232417, "ECCENTRICITY": 0.00795156, "INCLINATION": 98.9039, "RA_OF_ASC_NODE": 147.386, "ARG_OF_PERICENTER": 358.569, "MEAN_ANOMALY": 182.0654, "EPHEMERIS_TYPE": 0, "CLASSIFICATION_TYPE": "U", "NORAD_CAT_ID": 31782, "ELEMENT_SET_NO": 999, "REV_AT_EPOCH": 96683, "BSTAR": 0.00055247789, "MEAN_MOTION_DOT": 1.624e-05, "MEAN_MOTION_DDOT": 0}, "tle": {"line1": "1 31782U 99025CGH 25346.21428641  .00001624  00000+0  55248-3 0  9993", "line2": "2 31782  98.9039 147.3860 0079515 358.5690 182.0654 14.36232417966834"}}, "geometry": {"type": "Point", "coordinates": [17.973487204942007, 77.70537089145976]}}, {"type": "Feature", "properties": {"norad_id": 31783, "name": "FENGYUN 1C DEB", "group": "fengyun-1c-debris", "lat": -30.57907234939947, "lon": 4.271258029553383, "alt_km": 842.4620043532677, "timestamp": "2025-12-16T15:45:51.330423+00:00", "meta": {"OBJECT_NAME": "FENGYUN 1C DEB", "OBJECT_ID": "1999-025CGJ", "EPOCH": "2025-12-14T11:47:55.201632", "MEAN_MOTION": 14.08832325, "ECCENTRICITY": 0.01042608, "INCLINATION": 98.6047, "RA_OF_ASC_NODE": 357.0708, "ARG_OF_PERICENTER": 45.0415, "MEAN_ANOMALY": 109.7159, "EPHEMERIS_TYPE": 0, "CLASSIFICATION_TYPE": "U", "NORAD_CAT_ID": 31783, "ELEMENT_SET_NO": 999, "REV_AT_EPOCH": 89245, "BSTAR": 0.00075207432, "MEAN_MOTION_DOT": 1.324e-05, "MEAN_MOTION_DDOT": 0}, "tle": {"line1": "1 31783U 99025CGJ 25348.49161113  .00001324  00000+0  75207-3 0  9998", "line2": "2 31783  98.6047 357.0708 0104260  45.0415 109.7159 14.08832325892456"}}, "geometry": {"type": "Point", "coordinates": [4.271258029553383, -30.57907234939947]}}, {"type": "Feature", "properties": {"norad_id": 31788, "name": "FENGYUN 1C DEB", "group": "fengyun-1c-debris", "lat": 2.141584369920706, "lon": -44.902991648599034, "alt_km": 1134.4068424592951, "timestamp": "2025-12-16T15:45:51.330433+00:00", "meta": {"OBJECT_NAME": "FENGYUN 1C DEB", "OBJECT_ID": "1999-025CGP", "EPOCH": "2025-12-15T14:18:04.083840", "MEAN_MOTION": 13.45108457, "ECCENTRICITY": 0.0462168, "INCLINATION": 102.555, "RA_OF_ASC_NODE": 133.2929, "ARG_OF_PERICENTER": 80.464, "MEAN_ANOMALY": 356.706, "EPHEMERIS_TYPE": 0, "CLASSIFICATION_TYPE": "U", "NORAD_CAT_ID": 31788, "ELEMENT_SET_NO": 999, "REV_AT_EPOCH": 90643, "BSTAR": 0.0018373881, "MEAN_MOTION_DOT": 2.005e-05, "MEAN_MOTION_DDOT": 0}, "tle": {"line1": "1 31788U 99025CGP 25349.59588060  .00002005  00000+0  18374-2 0  9997", "line2": "2 31788 102.5550 133.2929 0462168  80.4640 356.7060 13.45108457906432"}}, "geometry": {"type": "Point", "coordinates": [-44.902991648599034, 2.141584369920706]}}]}